TJS-17                  
1 63524U 25073A   26116.75579943 -.00000080  00000+0  00000+0 0  9999
2 63524   0.9328  83.0083 0003616 275.3997 292.9364  1.00272355  3771
TIANLIAN 2-05           
1 63662U 25084A   26115.49984560  .00000102  00000+0  00000+0 0  9993
2 63662   4.5841 280.4325 0003503 111.6886  21.7451  1.00272545  3855
TJS-19                  
1 63924U 25097A   26116.76522227 -.00000293  00000+0  00000+0 0  9999
2 63924   3.3737 316.6399 0001060 308.3546   6.4645  1.00274805  3625
CHINASAT 3B             
1 64062U 25106A   26115.17240731 -.00000060  00000+0  00000+0 0  9997
2 64062   0.0408  51.9144 0001421 359.7428  30.8945  1.00270882  3529
SXM-10                  
1 64290U 25122A   26116.54226432 -.00000029  00000+0  00000+0 0  9997
2 64290   0.0359  33.6238 0002206 337.9539 282.0134  1.00272244  3166
COSMOS 2589             
1 64467U 25131A   26116.71172884 -.00000305  00000+0  00000+0 0  9990
2 64467   0.0980  18.9227 0000954 137.4235  52.5829  1.00283435  3042
CHINASAT 9C             
1 64470U 25132A   26116.94261192 -.00000258  00000+0  00000+0 0  9998
2 64470   0.0272 115.7396 0002966 276.6876 254.0545  1.00272708  3635
MTG-S1                  
1 64723U 25143A   26116.92118756 -.00000043  00000+0  00000+0 0  9998
2 64723   0.5983 337.1345 0002099 358.0612 207.9528  1.00272032  2901
DROR 1                  
1 64784U 25148A   26116.92101422  .00000000  00000+0  00000+0 0  9994
2 64784   0.0157  86.8539 0003541 286.7016 168.9231  1.00269974  2781
SHIYAN-29               
1 65486U 25196A   26113.71016876 -.00000286  00000+0  00000+0 0  9996
2 65486  28.7650  19.2234 0009850 177.7653   6.0294  1.00272253  2339
NUSANTARA LIMA (NUSANT*)
1 65588U 25205A   26116.93445023 -.00000369  00000+0  00000+0 0  9999
2 65588   0.0528  74.3714 0000966 323.9004 265.9081  1.00272864  2202
TJS-20                  
1 66142U 25238A   26116.64894645  .00000002  00000+0  00000+0 0  9991
2 66142   5.5840 299.7617 0003834 121.6050  89.3445  1.00268364  1810
CMS-03 (GSAT-7R)        
1 66311U 25249B   26116.96731716  .00000000  00000+0  00000+0 0  9993
2 66311   0.0076 212.5156 0003717 165.8665 258.8432  1.00270262  1833
VIASAT-3 F2             
1 66454U 25261A   26116.90619417 -.00000245  00000+0  00000+0 0  9994
2 66454   0.0187 110.1332 0001252  21.8717 330.1582  1.00273263  2277
SHIJIAN-28 (SJ-28)      
1 66549U 25277A   26116.94493433 -.00000379  00000+0  00000+0 0  9996
2 66549   4.6694 272.9331 0000302 357.0947  41.9546  1.00270788  1641
TJS-22                  
1 66990U 25290A   26116.01363080 -.00000023  00000+0  00000+0 0  9999
2 66990   1.6570 285.9634 0002140   0.6915 358.7407  1.00272856  1507
TJS-23                  
1 67226U 25306A   26116.74274395 -.00000006  00000+0  00000+0 0  9991
2 67226   5.7057 297.7494 0004449 134.5387 225.2877  1.00271881  1375
