[{"OBJECT_NAME":"TJS-17","OBJECT_ID":"2025-073A","EPOCH":"2026-04-26T18:08:21.070752","MEAN_MOTION":1.00272355,"ECCENTRICITY":0.0003616,"INCLINATION":0.9328,"RA_OF_ASC_NODE":83.0083,"ARG_OF_PERICENTER":275.3997,"MEAN_ANOMALY":292.9364,"EPHEMERIS_TYPE":0,"CLASSIFICATION_TYPE":"U","NORAD_CAT_ID":63524,"ELEMENT_SET_NO":999,"REV_AT_EPOCH":377,"BSTAR":0,"MEAN_MOTION_DOT":-8.0e-7,"MEAN_MOTION_DDOT":0},{"OBJECT_NAME":"TIANLIAN 2-05","OBJECT_ID":"2025-084A","EPOCH":"2026-04-25T11:59:46.659840","MEAN_MOTION":1.00272545,"ECCENTRICITY":0.00035031,"INCLINATION":4.5841,"RA_OF_ASC_NODE":280.4325,"ARG_OF_PERICENTER":111.6886,"MEAN_ANOMALY":21.7451,"EPHEMERIS_TYPE":0,"CLASSIFICATION_TYPE":"U","NORAD_CAT_ID":63662,"ELEMENT_SET_NO":999,"REV_AT_EPOCH":385,"BSTAR":0,"MEAN_MOTION_DOT":1.02e-6,"MEAN_MOTION_DDOT":0},{"OBJECT_NAME":"TJS-19","OBJECT_ID":"2025-097A","EPOCH":"2026-04-26T18:21:55.204128","MEAN_MOTION":1.00274805,"ECCENTRICITY":0.000106,"INCLINATION":3.3737,"RA_OF_ASC_NODE":316.6399,"ARG_OF_PERICENTER":308.3546,"MEAN_ANOMALY":6.4645,"EPHEMERIS_TYPE":0,"CLASSIFICATION_TYPE":"U","NORAD_CAT_ID":63924,"ELEMENT_SET_NO":999,"REV_AT_EPOCH":362,"BSTAR":0,"MEAN_MOTION_DOT":-2.93e-6,"MEAN_MOTION_DDOT":0},{"OBJECT_NAME":"CHINASAT 3B","OBJECT_ID":"2025-106A","EPOCH":"2026-04-25T04:08:15.991584","MEAN_MOTION":1.00270882,"ECCENTRICITY":0.0001421,"INCLINATION":0.0408,"RA_OF_ASC_NODE":51.9144,"ARG_OF_PERICENTER":359.7428,"MEAN_ANOMALY":30.8945,"EPHEMERIS_TYPE":0,"CLASSIFICATION_TYPE":"U","NORAD_CAT_ID":64062,"ELEMENT_SET_NO":999,"REV_AT_EPOCH":352,"BSTAR":0,"MEAN_MOTION_DOT":-6.0e-7,"MEAN_MOTION_DDOT":0},{"OBJECT_NAME":"SXM-10","OBJECT_ID":"2025-122A","EPOCH":"2026-04-26T13:00:51.637248","MEAN_MOTION":1.00272244,"ECCENTRICITY":0.0002206,"INCLINATION":0.0359,"RA_OF_ASC_NODE":33.6238,"ARG_OF_PERICENTER":337.9539,"MEAN_ANOMALY":282.0134,"EPHEMERIS_TYPE":0,"CLASSIFICATION_TYPE":"U","NORAD_CAT_ID":64290,"ELEMENT_SET_NO":999,"REV_AT_EPOCH":316,"BSTAR":0,"MEAN_MOTION_DOT":-2.9e-7,"MEAN_MOTION_DDOT":0},{"OBJECT_NAME":"COSMOS 2589","OBJECT_ID":"2025-131A","EPOCH":"2026-04-26T17:04:53.371776","MEAN_MOTION":1.00283435,"ECCENTRICITY":9.54e-5,"INCLINATION":0.098,"RA_OF_ASC_NODE":18.9227,"ARG_OF_PERICENTER":137.4235,"MEAN_ANOMALY":52.5829,"EPHEMERIS_TYPE":0,"CLASSIFICATION_TYPE":"U","NORAD_CAT_ID":64467,"ELEMENT_SET_NO":999,"REV_AT_EPOCH":304,"BSTAR":0,"MEAN_MOTION_DOT":-3.05e-6,"MEAN_MOTION_DDOT":0},{"OBJECT_NAME":"CHINASAT 9C","OBJECT_ID":"2025-132A","EPOCH":"2026-04-26T22:37:21.669888","MEAN_MOTION":1.00272708,"ECCENTRICITY":0.00029667,"INCLINATION":0.0272,"RA_OF_ASC_NODE":115.7396,"ARG_OF_PERICENTER":276.6876,"MEAN_ANOMALY":254.0545,"EPHEMERIS_TYPE":0,"CLASSIFICATION_TYPE":"U","NORAD_CAT_ID":64470,"ELEMENT_SET_NO":999,"REV_AT_EPOCH":363,"BSTAR":0,"MEAN_MOTION_DOT":-2.58e-6,"MEAN_MOTION_DDOT":0},{"OBJECT_NAME":"MTG-S1","OBJECT_ID":"2025-143A","EPOCH":"2026-04-26T22:06:30.605184","MEAN_MOTION":1.00272032,"ECCENTRICITY":0.00020992,"INCLINATION":0.5983,"RA_OF_ASC_NODE":337.1345,"ARG_OF_PERICENTER":358.0612,"MEAN_ANOMALY":207.9528,"EPHEMERIS_TYPE":0,"CLASSIFICATION_TYPE":"U","NORAD_CAT_ID":64723,"ELEMENT_SET_NO":999,"REV_AT_EPOCH":290,"BSTAR":0,"MEAN_MOTION_DOT":-4.3e-7,"MEAN_MOTION_DDOT":0},{"OBJECT_NAME":"DROR 1","OBJECT_ID":"2025-148A","EPOCH":"2026-04-26T22:06:15.628608","MEAN_MOTION":1.00269974,"ECCENTRICITY":0.00035416,"INCLINATION":0.0157,"RA_OF_ASC_NODE":86.8539,"ARG_OF_PERICENTER":286.7016,"MEAN_ANOMALY":168.9231,"EPHEMERIS_TYPE":0,"CLASSIFICATION_TYPE":"U","NORAD_CAT_ID":64784,"ELEMENT_SET_NO":999,"REV_AT_EPOCH":278,"BSTAR":0,"MEAN_MOTION_DOT":0,"MEAN_MOTION_DDOT":0},{"OBJECT_NAME":"SHIYAN-29","OBJECT_ID":"2025-196A","EPOCH":"2026-04-23T17:02:38.580864","MEAN_MOTION":1.00272253,"ECCENTRICITY":0.00098506,"INCLINATION":28.765,"RA_OF_ASC_NODE":19.2234,"ARG_OF_PERICENTER":177.7653,"MEAN_ANOMALY":6.0294,"EPHEMERIS_TYPE":0,"CLASSIFICATION_TYPE":"U","NORAD_CAT_ID":65486,"ELEMENT_SET_NO":999,"REV_AT_EPOCH":233,"BSTAR":0,"MEAN_MOTION_DOT":-2.86e-6,"MEAN_MOTION_DDOT":0},{"OBJECT_NAME":"NUSANTARA LIMA (NUSANTARA 5)","OBJECT_ID":"2025-205A","EPOCH":"2026-04-26T22:25:36.499872","MEAN_MOTION":1.00272864,"ECCENTRICITY":9.669e-5,"INCLINATION":0.0528,"RA_OF_ASC_NODE":74.3714,"ARG_OF_PERICENTER":323.9004,"MEAN_ANOMALY":265.9081,"EPHEMERIS_TYPE":0,"CLASSIFICATION_TYPE":"U","NORAD_CAT_ID":65588,"ELEMENT_SET_NO":999,"REV_AT_EPOCH":220,"BSTAR":0,"MEAN_MOTION_DOT":-3.69e-6,"MEAN_MOTION_DDOT":0},{"OBJECT_NAME":"TJS-20","OBJECT_ID":"2025-238A","EPOCH":"2026-04-26T15:34:28.973280","MEAN_MOTION":1.00268364,"ECCENTRICITY":0.00038342,"INCLINATION":5.584,"RA_OF_ASC_NODE":299.7617,"ARG_OF_PERICENTER":121.605,"MEAN_ANOMALY":89.3445,"EPHEMERIS_TYPE":0,"CLASSIFICATION_TYPE":"U","NORAD_CAT_ID":66142,"ELEMENT_SET_NO":999,"REV_AT_EPOCH":181,"BSTAR":0,"MEAN_MOTION_DOT":2.0e-8,"MEAN_MOTION_DDOT":0},{"OBJECT_NAME":"CMS-03 (GSAT-7R)","OBJECT_ID":"2025-249B","EPOCH":"2026-04-26T23:12:56.202624","MEAN_MOTION":1.00270262,"ECCENTRICITY":0.00037178,"INCLINATION":0.0076,"RA_OF_ASC_NODE":212.5156,"ARG_OF_PERICENTER":165.8665,"MEAN_ANOMALY":258.8432,"EPHEMERIS_TYPE":0,"CLASSIFICATION_TYPE":"U","NORAD_CAT_ID":66311,"ELEMENT_SET_NO":999,"REV_AT_EPOCH":183,"BSTAR":0,"MEAN_MOTION_DOT":0,"MEAN_MOTION_DDOT":0},{"OBJECT_NAME":"VIASAT-3 F2","OBJECT_ID":"2025-261A","EPOCH":"2026-04-26T21:44:55.176288","MEAN_MOTION":1.00273263,"ECCENTRICITY":0.00012525,"INCLINATION":0.0187,"RA_OF_ASC_NODE":110.1332,"ARG_OF_PERICENTER":21.8717,"MEAN_ANOMALY":330.1582,"EPHEMERIS_TYPE":0,"CLASSIFICATION_TYPE":"U","NORAD_CAT_ID":66454,"ELEMENT_SET_NO":999,"REV_AT_EPOCH":227,"BSTAR":0,"MEAN_MOTION_DOT":-2.45e-6,"MEAN_MOTION_DDOT":0},{"OBJECT_NAME":"SHIJIAN-28 (SJ-28)","OBJECT_ID":"2025-277A","EPOCH":"2026-04-26T22:40:42.326112","MEAN_MOTION":1.00270788,"ECCENTRICITY":3.024e-5,"INCLINATION":4.6694,"RA_OF_ASC_NODE":272.9331,"ARG_OF_PERICENTER":357.0947,"MEAN_ANOMALY":41.9546,"EPHEMERIS_TYPE":0,"CLASSIFICATION_TYPE":"U","NORAD_CAT_ID":66549,"ELEMENT_SET_NO":999,"REV_AT_EPOCH":164,"BSTAR":0,"MEAN_MOTION_DOT":-3.79e-6,"MEAN_MOTION_DDOT":0},{"OBJECT_NAME":"TJS-22","OBJECT_ID":"2025-290A","EPOCH":"2026-04-26T00:19:37.701120","MEAN_MOTION":1.00272856,"ECCENTRICITY":0.00021401,"INCLINATION":1.657,"RA_OF_ASC_NODE":285.9634,"ARG_OF_PERICENTER":0.6915,"MEAN_ANOMALY":358.7407,"EPHEMERIS_TYPE":0,"CLASSIFICATION_TYPE":"U","NORAD_CAT_ID":66990,"ELEMENT_SET_NO":999,"REV_AT_EPOCH":150,"BSTAR":0,"MEAN_MOTION_DOT":-2.3e-7,"MEAN_MOTION_DDOT":0},{"OBJECT_NAME":"TJS-23","OBJECT_ID":"2025-306A","EPOCH":"2026-04-26T17:49:33.077280","MEAN_MOTION":1.00271881,"ECCENTRICITY":0.0004449,"INCLINATION":5.7057,"RA_OF_ASC_NODE":297.7494,"ARG_OF_PERICENTER":134.5387,"MEAN_ANOMALY":225.2877,"EPHEMERIS_TYPE":0,"CLASSIFICATION_TYPE":"U","NORAD_CAT_ID":67226,"ELEMENT_SET_NO":999,"REV_AT_EPOCH":137,"BSTAR":0,"MEAN_MOTION_DOT":-6.0e-8,"MEAN_MOTION_DDOT":0}]
